GLOBALSTAR M023         
1 25621U 99004A   25320.29125815 -.00000014  00000+0  50130-3 0  9990
2 25621  52.0119 310.2782 0010340 102.1542   1.0994 12.62509145234942
GLOBALSTAR M040         
1 25622U 99004B   25320.32654531 -.00000042  00000+0  34798-3 0  9990
2 25622  51.9929 314.5498 0001058  18.9981  88.8779 12.62022908234466
GLOBALSTAR M036         
1 25623U 99004C   25320.45064178  .00000024  00000+0  15600-2 0  9996
2 25623  51.9943 198.9827 0010791 346.8049 184.5085 11.86616786197050
GLOBALSTAR M038         
1 25624U 99004D   25320.49424110 -.00000047  00000+0  39299-3 0  9994
2 25624  51.9998 352.9417 0001770  19.2213 129.8610 12.32535895221157
GLOBALSTAR M022         
1 25649U 99012A   25319.76330228 -.00000051  00000+0  42840-3 0  9995
2 25649  52.0036 238.8462 0003219  99.3830 284.8377 12.02506420194616
GLOBALSTAR M041         
1 25650U 99012B   25319.73541566 -.00000042  00000+0  55739-3 0  9994
2 25650  51.9991 124.9918 0000464 219.0047 141.0756 11.96680928196421
GLOBALSTAR M046         
1 25651U 99012C   25320.35711391 -.00000027  00000+0  67993-3 0  9998
2 25651  52.0024 181.8121 0001708 165.0496   6.1002 12.09414519202079
GLOBALSTAR M037         
1 25652U 99012D   25320.50892102 -.00000062  00000+0  23188-3 0  9993
2 25652  52.0007  80.1751 0002625 149.5750 289.9045 12.62455007230514
