<?xml version="1.0" encoding="UTF-8"?>
<ndm xmlns:xsi="http://www.w3.org/2001/XMLSchema-instance" xsi:noNamespaceSchemaLocation="https://sanaregistry.org/r/ndmxml_unqualified/ndmxml-2.0.0-master-2.0.xsd">
<omm id="CCSDS_OMM_VERS" version="2.0">
<header><CREATION_DATE/><ORIGINATOR/></header><body><segment><metadata><OBJECT_NAME>GLOBALSTAR M023</OBJECT_NAME><OBJECT_ID>1999-004A</OBJECT_ID><CENTER_NAME>EARTH</CENTER_NAME><REF_FRAME>TEME</REF_FRAME><TIME_SYSTEM>UTC</TIME_SYSTEM><MEAN_ELEMENT_THEORY>SGP4</MEAN_ELEMENT_THEORY></metadata><data><meanElements><EPOCH>2025-11-16T06:59:24.704160</EPOCH><MEAN_MOTION>12.62509145</MEAN_MOTION><ECCENTRICITY>.001034</ECCENTRICITY><INCLINATION>52.0119</INCLINATION><RA_OF_ASC_NODE>310.2782</RA_OF_ASC_NODE><ARG_OF_PERICENTER>102.1542</ARG_OF_PERICENTER><MEAN_ANOMALY>1.0994</MEAN_ANOMALY></meanElements><tleParameters><EPHEMERIS_TYPE>0</EPHEMERIS_TYPE><CLASSIFICATION_TYPE>U</CLASSIFICATION_TYPE><NORAD_CAT_ID>25621</NORAD_CAT_ID><ELEMENT_SET_NO>999</ELEMENT_SET_NO><REV_AT_EPOCH>23494</REV_AT_EPOCH><BSTAR>.5013E-3</BSTAR><MEAN_MOTION_DOT>-.14E-6</MEAN_MOTION_DOT><MEAN_MOTION_DDOT>0</MEAN_MOTION_DDOT></tleParameters></data></segment></body></omm>
<omm id="CCSDS_OMM_VERS" version="2.0">
<header><CREATION_DATE/><ORIGINATOR/></header><body><segment><metadata><OBJECT_NAME>GLOBALSTAR M040</OBJECT_NAME><OBJECT_ID>1999-004B</OBJECT_ID><CENTER_NAME>EARTH</CENTER_NAME><REF_FRAME>TEME</REF_FRAME><TIME_SYSTEM>UTC</TIME_SYSTEM><MEAN_ELEMENT_THEORY>SGP4</MEAN_ELEMENT_THEORY></metadata><data><meanElements><EPOCH>2025-11-16T07:50:13.514784</EPOCH><MEAN_MOTION>12.62022908</MEAN_MOTION><ECCENTRICITY>.0001058</ECCENTRICITY><INCLINATION>51.9929</INCLINATION><RA_OF_ASC_NODE>314.5498</RA_OF_ASC_NODE><ARG_OF_PERICENTER>18.9981</ARG_OF_PERICENTER><MEAN_ANOMALY>88.8779</MEAN_ANOMALY></meanElements><tleParameters><EPHEMERIS_TYPE>0</EPHEMERIS_TYPE><CLASSIFICATION_TYPE>U</CLASSIFICATION_TYPE><NORAD_CAT_ID>25622</NORAD_CAT_ID><ELEMENT_SET_NO>999</ELEMENT_SET_NO><REV_AT_EPOCH>23446</REV_AT_EPOCH><BSTAR>.34798E-3</BSTAR><MEAN_MOTION_DOT>-.42E-6</MEAN_MOTION_DOT><MEAN_MOTION_DDOT>0</MEAN_MOTION_DDOT></tleParameters></data></segment></body></omm>
<omm id="CCSDS_OMM_VERS" version="2.0">
<header><CREATION_DATE/><ORIGINATOR/></header><body><segment><metadata><OBJECT_NAME>GLOBALSTAR M036</OBJECT_NAME><OBJECT_ID>1999-004C</OBJECT_ID><CENTER_NAME>EARTH</CENTER_NAME><REF_FRAME>TEME</REF_FRAME><TIME_SYSTEM>UTC</TIME_SYSTEM><MEAN_ELEMENT_THEORY>SGP4</MEAN_ELEMENT_THEORY></metadata><data><meanElements><EPOCH>2025-11-16T10:48:55.449792</EPOCH><MEAN_MOTION>11.86616786</MEAN_MOTION><ECCENTRICITY>.0010791</ECCENTRICITY><INCLINATION>51.9943</INCLINATION><RA_OF_ASC_NODE>198.9827</RA_OF_ASC_NODE><ARG_OF_PERICENTER>346.8049</ARG_OF_PERICENTER><MEAN_ANOMALY>184.5085</MEAN_ANOMALY></meanElements><tleParameters><EPHEMERIS_TYPE>0</EPHEMERIS_TYPE><CLASSIFICATION_TYPE>U</CLASSIFICATION_TYPE><NORAD_CAT_ID>25623</NORAD_CAT_ID><ELEMENT_SET_NO>999</ELEMENT_SET_NO><REV_AT_EPOCH>19705</REV_AT_EPOCH><BSTAR>.156E-2</BSTAR><MEAN_MOTION_DOT>.24E-6</MEAN_MOTION_DOT><MEAN_MOTION_DDOT>0</MEAN_MOTION_DDOT></tleParameters></data></segment></body></omm>
<omm id="CCSDS_OMM_VERS" version="2.0">
<header><CREATION_DATE/><ORIGINATOR/></header><body><segment><metadata><OBJECT_NAME>GLOBALSTAR M038</OBJECT_NAME><OBJECT_ID>1999-004D</OBJECT_ID><CENTER_NAME>EARTH</CENTER_NAME><REF_FRAME>TEME</REF_FRAME><TIME_SYSTEM>UTC</TIME_SYSTEM><MEAN_ELEMENT_THEORY>SGP4</MEAN_ELEMENT_THEORY></metadata><data><meanElements><EPOCH>2025-11-16T11:51:42.431040</EPOCH><MEAN_MOTION>12.32535895</MEAN_MOTION><ECCENTRICITY>.000177</ECCENTRICITY><INCLINATION>51.9998</INCLINATION><RA_OF_ASC_NODE>352.9417</RA_OF_ASC_NODE><ARG_OF_PERICENTER>19.2213</ARG_OF_PERICENTER><MEAN_ANOMALY>129.8610</MEAN_ANOMALY></meanElements><tleParameters><EPHEMERIS_TYPE>0</EPHEMERIS_TYPE><CLASSIFICATION_TYPE>U</CLASSIFICATION_TYPE><NORAD_CAT_ID>25624</NORAD_CAT_ID><ELEMENT_SET_NO>999</ELEMENT_SET_NO><REV_AT_EPOCH>22115</REV_AT_EPOCH><BSTAR>.39299E-3</BSTAR><MEAN_MOTION_DOT>-.47E-6</MEAN_MOTION_DOT><MEAN_MOTION_DDOT>0</MEAN_MOTION_DDOT></tleParameters></data></segment></body></omm>
<omm id="CCSDS_OMM_VERS" version="2.0">
<header><CREATION_DATE/><ORIGINATOR/></header><body><segment><metadata><OBJECT_NAME>GLOBALSTAR M022</OBJECT_NAME><OBJECT_ID>1999-012A</OBJECT_ID><CENTER_NAME>EARTH</CENTER_NAME><REF_FRAME>TEME</REF_FRAME><TIME_SYSTEM>UTC</TIME_SYSTEM><MEAN_ELEMENT_THEORY>SGP4</MEAN_ELEMENT_THEORY></metadata><data><meanElements><EPOCH>2025-11-15T18:19:09.316992</EPOCH><MEAN_MOTION>12.02506420</MEAN_MOTION><ECCENTRICITY>.0003219</ECCENTRICITY><INCLINATION>52.0036</INCLINATION><RA_OF_ASC_NODE>238.8462</RA_OF_ASC_NODE><ARG_OF_PERICENTER>99.3830</ARG_OF_PERICENTER><MEAN_ANOMALY>284.8377</MEAN_ANOMALY></meanElements><tleParameters><EPHEMERIS_TYPE>0</EPHEMERIS_TYPE><CLASSIFICATION_TYPE>U</CLASSIFICATION_TYPE><NORAD_CAT_ID>25649</NORAD_CAT_ID><ELEMENT_SET_NO>999</ELEMENT_SET_NO><REV_AT_EPOCH>19461</REV_AT_EPOCH><BSTAR>.4284E-3</BSTAR><MEAN_MOTION_DOT>-.51E-6</MEAN_MOTION_DOT><MEAN_MOTION_DDOT>0</MEAN_MOTION_DDOT></tleParameters></data></segment></body></omm>
<omm id="CCSDS_OMM_VERS" version="2.0">
<header><CREATION_DATE/><ORIGINATOR/></header><body><segment><metadata><OBJECT_NAME>GLOBALSTAR M041</OBJECT_NAME><OBJECT_ID>1999-012B</OBJECT_ID><CENTER_NAME>EARTH</CENTER_NAME><REF_FRAME>TEME</REF_FRAME><TIME_SYSTEM>UTC</TIME_SYSTEM><MEAN_ELEMENT_THEORY>SGP4</MEAN_ELEMENT_THEORY></metadata><data><meanElements><EPOCH>2025-11-15T17:38:59.913024</EPOCH><MEAN_MOTION>11.96680928</MEAN_MOTION><ECCENTRICITY>.0000464</ECCENTRICITY><INCLINATION>51.9991</INCLINATION><RA_OF_ASC_NODE>124.9918</RA_OF_ASC_NODE><ARG_OF_PERICENTER>219.0047</ARG_OF_PERICENTER><MEAN_ANOMALY>141.0756</MEAN_ANOMALY></meanElements><tleParameters><EPHEMERIS_TYPE>0</EPHEMERIS_TYPE><CLASSIFICATION_TYPE>U</CLASSIFICATION_TYPE><NORAD_CAT_ID>25650</NORAD_CAT_ID><ELEMENT_SET_NO>999</ELEMENT_SET_NO><REV_AT_EPOCH>19642</REV_AT_EPOCH><BSTAR>.55739E-3</BSTAR><MEAN_MOTION_DOT>-.42E-6</MEAN_MOTION_DOT><MEAN_MOTION_DDOT>0</MEAN_MOTION_DDOT></tleParameters></data></segment></body></omm>
<omm id="CCSDS_OMM_VERS" version="2.0">
<header><CREATION_DATE/><ORIGINATOR/></header><body><segment><metadata><OBJECT_NAME>GLOBALSTAR M046</OBJECT_NAME><OBJECT_ID>1999-012C</OBJECT_ID><CENTER_NAME>EARTH</CENTER_NAME><REF_FRAME>TEME</REF_FRAME><TIME_SYSTEM>UTC</TIME_SYSTEM><MEAN_ELEMENT_THEORY>SGP4</MEAN_ELEMENT_THEORY></metadata><data><meanElements><EPOCH>2025-11-16T08:34:14.641824</EPOCH><MEAN_MOTION>12.09414519</MEAN_MOTION><ECCENTRICITY>.0001708</ECCENTRICITY><INCLINATION>52.0024</INCLINATION><RA_OF_ASC_NODE>181.8121</RA_OF_ASC_NODE><ARG_OF_PERICENTER>165.0496</ARG_OF_PERICENTER><MEAN_ANOMALY>6.1002</MEAN_ANOMALY></meanElements><tleParameters><EPHEMERIS_TYPE>0</EPHEMERIS_TYPE><CLASSIFICATION_TYPE>U</CLASSIFICATION_TYPE><NORAD_CAT_ID>25651</NORAD_CAT_ID><ELEMENT_SET_NO>999</ELEMENT_SET_NO><REV_AT_EPOCH>20207</REV_AT_EPOCH><BSTAR>.67993E-3</BSTAR><MEAN_MOTION_DOT>-.27E-6</MEAN_MOTION_DOT><MEAN_MOTION_DDOT>0</MEAN_MOTION_DDOT></tleParameters></data></segment></body></omm>
<omm id="CCSDS_OMM_VERS" version="2.0">
<header><CREATION_DATE/><ORIGINATOR/></header><body><segment><metadata><OBJECT_NAME>GLOBALSTAR M037</OBJECT_NAME><OBJECT_ID>1999-012D</OBJECT_ID><CENTER_NAME>EARTH</CENTER_NAME><REF_FRAME>TEME</REF_FRAME><TIME_SYSTEM>UTC</TIME_SYSTEM><MEAN_ELEMENT_THEORY>SGP4</MEAN_ELEMENT_THEORY></metadata><data><meanElements><EPOCH>2025-11-16T12:12:50.776128</EPOCH><MEAN_MOTION>12.62455007</MEAN_MOTION><ECCENTRICITY>.0002625</ECCENTRICITY><INCLINATION>52.0007</INCLINATION><RA_OF_ASC_NODE>80.1751</RA_OF_ASC_NODE><ARG_OF_PERICENTER>149.5750</ARG_OF_PERICENTER><MEAN_ANOMALY>289.9045</MEAN_ANOMALY></meanElements><tleParameters><EPHEMERIS_TYPE>0</EPHEMERIS_TYPE><CLASSIFICATION_TYPE>U</CLASSIFICATION_TYPE><NORAD_CAT_ID>25652</NORAD_CAT_ID><ELEMENT_SET_NO>999</ELEMENT_SET_NO><REV_AT_EPOCH>23051</REV_AT_EPOCH><BSTAR>.23188E-3</BSTAR><MEAN_MOTION_DOT>-.62E-6</MEAN_MOTION_DOT><MEAN_MOTION_DDOT>0</MEAN_MOTION_DDOT></tleParameters></data></segment></body></omm>

</ndm>
